BEIDOU-3 M17 (C36)      
1 43706U 18093A   26061.46828306 -.00000026  00000+0  00000+0 0  9990
2 43706  54.1714 185.9163 0006994 297.4131  70.7484  1.86228347 49556
BEIDOU-3 M18 (C37)      
1 43707U 18093B   26061.31825568 -.00000028  00000+0  00000+0 0  9994
2 43707  54.1724 185.9133 0006020 341.6195  18.3110  1.86226384 49549
BEIDOU-3 IGSO-1 (C38)   
1 44204U 19023A   26063.55355987 -.00000207  00000+0  00000+0 0  9991
2 44204  58.5540  38.7238 0025996 236.5000 205.5340  1.00270898  6168
BEIDOU-2 G8 (C01)       
1 44231U 19027A   26062.40122155 -.00000262  00000+0  00000+0 0  9998
2 44231   1.8655  74.7300 0009271 269.3734 105.9868  1.00268063 25027
BEIDOU-3 IGSO-2 (C39)   
1 44337U 19035A   26057.68879618 -.00000176  00000+0  00000+0 0  9995
2 44337  55.2338 159.8353 0038734 206.4752 153.7223  1.00247364 24561
BEIDOU-3 M24 (C46)      
1 44542U 19061A   26062.46218233 -.00000017  00000+0  00000+0 0  9998
2 44542  54.3994 186.2929 0008607  21.3432 338.6489  1.86228787 43825
BEIDOU-3 M23 (C45)      
1 44543U 19061B   26062.31966779 -.00000018  00000+0  00000+0 0  9999
2 44543  54.3976 186.2660 0005077  14.2210 162.4807  1.86227170 43823
BEIDOU-3 IGSO-3 (C40)   
1 44709U 19073A   26063.00235584 -.00000158  00000+0  00000+0 0  9991
2 44709  54.9789 282.0342 0040520 188.9751 171.0056  1.00269453 23408
BEIDOU-3 M22 (C44)      
1 44793U 19078A   26063.37544912 -.00000060  00000+0  00000+0 0  9999
2 44793  54.0307 303.5169 0007273  35.6258 324.4804  1.86231851 42694
BEIDOU-3 M21 (C43)      
1 44794U 19078B   26062.97806659 -.00000058  00000+0  00000+0 0  9991
2 44794  54.0042 303.4937 0005911  39.9322 320.1697  1.86227541 42693
BEIDOU-3 M19 (C41)      
1 44864U 19090A   26061.26275238 -.00000008  00000+0  00000+0 0  9992
2 44864  56.4657  66.3234 0020408 291.3317 195.2232  1.86231220 42246
BEIDOU-3 M20 (C42)      
1 44865U 19090B   26062.82614198 -.00000021  00000+0  00000+0 0  9993
2 44865  56.4687  66.3059 0017813 302.9430 241.3938  1.86231297 42257
BEIDOU-3 G2 (C60)       
1 45344U 20017A   26063.65616715 -.00000149  00000+0  00000+0 0  9997
2 45344   2.6549  45.5868 0002777 304.5413 128.5184  1.00271221 22219
BEIDOU-3 G3 (C61)       
1 45807U 20040A   26063.62560046 -.00000363  00000+0  00000+0 0  9997
2 45807   2.1905  67.1212 0004352 316.3077 114.6367  1.00275307 21021
BEIDOU-3 G4 (C62)       
1 56564U 23066A   26063.62958995 -.00000122  00000+0  00000+0 0  9997
2 56564   0.6482 310.9613 0002081 158.8319  79.2705  1.00272282 10349
BEIDOU-3 M28 (C50)      
1 58654U 23207A   26061.98162292 -.00000017  00000+0  00000+0 0  9993
2 58654  55.6589  65.8845 0004896 302.3246  57.6586  1.86229755 14862
BEIDOU-3 M26 (C48)      
1 58655U 23207B   26062.31605649 -.00000020  00000+0  00000+0 0  9994
2 58655  55.6613  65.8595 0005721 288.0153  71.9513  1.86229607 14852
